ONEWEB-0607             
1 54671U 22166AF  25298.01326355  .00001032  00000+0  24663-2 0  9999
2 54671  87.9166 290.8886 0001771  87.8360 272.2977 13.21820407140471
ONEWEB-0608             
1 54672U 22166AG  25298.01984581  .00001993  00000+0  47930-2 0  9999
2 54672  87.9174 290.8713 0001539  76.9190 283.2116 13.21813567140489
ONEWEB-0610             
1 54673U 22166AH  25298.00008360  .00000102  00000+0  21515-3 0  9994
2 54673  87.9166 290.9121 0001362  75.3133 284.8152 13.21824235140389
ONEWEB-0611             
1 54674U 22166AJ  25297.99349781 -.00001137  00000+0 -27834-2 0  9997
2 54674  87.9167 290.9090 0002022  93.1206 267.0159 13.21834092140370
ONEWEB-0612             
1 54675U 22166AK  25298.00667637  .00000289  00000+0  66905-3 0  9992
2 54675  87.9166 290.8851 0001740  87.1063 273.0270 13.21823548140368
ONEWEB-0615             
1 54676U 22166AL  25298.21400576 -.00002377  00000+0 -57886-2 0  9992
2 54676  87.9172 290.8701 0001873  88.0192 272.1156 13.21837483140401
ONEWEB-0655             
1 54677U 22166AM  25298.03794907  .00003785  00000+0  91329-2 0  9999
2 54677  87.9166 290.9106 0001588  94.2823 265.8492 13.21801617140376
ONEWEB-0659             
1 54678U 22166AN  25298.05441174  .00002233  00000+0  53749-2 0  9998
2 54678  87.9164 290.9072 0001956  88.0150 272.1208 13.21813007140462
